{"type": "FeatureCollection", "features": [ {"type": "Feature", "properties": {"norad_id": 28659, "name": "DIRECTV 8", "group": "intelsat", "lat": 0.0018720764710219561, "lon": -162.7053886403213, "alt_km": 35781.53300568801, "timestamp": "2025-12-13T15:35:11.782614+00:00", "meta": {"OBJECT_NAME": "DIRECTV 8", "OBJECT_ID": "2005-019A", "EPOCH": "2025-12-12T23:11:16.243008", "MEAN_MOTION": 1.00271883, "ECCENTRICITY": 0.00030146, "INCLINATION": 0.0214, "RA_OF_ASC_NODE": 64.568, "ARG_OF_PERICENTER": 202.2078, "MEAN_ANOMALY": 43.9038, "EPHEMERIS_TYPE": 0, "CLASSIFICATION_TYPE": "U", "NORAD_CAT_ID": 28659, "ELEMENT_SET_NO": 999, "REV_AT_EPOCH": 7520, "BSTAR": 0, "MEAN_MOTION_DOT": 1.4e-07, "MEAN_MOTION_DDOT": 0}, "tle": {"line1": "1 28659U 05019A   25346.96616022  .00000014  00000+0  00000+0 0  9990", "line2": "2 28659   0.0214  64.5680 0003014 202.2078  43.9038  1.00271883 75208"}}, "geometry": {"type": "Point", "coordinates": [-162.7053886403213, 0.0018720764710219561]}}, {"type": "Feature", "properties": {"norad_id": 28702, "name": "GALAXY 28 (G-28)", "group": "intelsat", "lat": 1.5422444307178165, "lon": -132.30106165253895, "alt_km": 35776.48697376456, "timestamp": "2025-12-13T15:35:11.782642+00:00", "meta": {"OBJECT_NAME": "GALAXY 28 (G-28)", "OBJECT_ID": "2005-022A", "EPOCH": "2025-12-12T23:19:52.917600", "MEAN_MOTION": 1.0027179, "ECCENTRICITY": 0.00028132, "INCLINATION": 2.8194, "RA_OF_ASC_NODE": 81.2795, "ARG_OF_PERICENTER": 184.0549, "MEAN_ANOMALY": 77.86, "EPHEMERIS_TYPE": 0, "CLASSIFICATION_TYPE": "U", "NORAD_CAT_ID": 28702, "ELEMENT_SET_NO": 999, "REV_AT_EPOCH": 5010, "BSTAR": 0, "MEAN_MOTION_DOT": -1.75e-06, "MEAN_MOTION_DDOT": 0}, "tle": {"line1": "1 28702U 05022A   25346.97214025 -.00000175  00000+0  00000+0 0  9990", "line2": "2 28702   2.8194  81.2795 0002813 184.0549  77.8600  1.00271790 50103"}}, "geometry": {"type": "Point", "coordinates": [-132.30106165253895, 1.5422444307178165]}}, {"type": "Feature", "properties": {"norad_id": 29236, "name": "GALAXY 16 (G-16)", "group": "intelsat", "lat": 0.03031068123490922, "lon": -142.65334328636618, "alt_km": 35777.83226683393, "timestamp": "2025-12-13T15:35:11.782661+00:00", "meta": {"OBJECT_NAME": "GALAXY 16 (G-16)", "OBJECT_ID": "2006-023A", "EPOCH": "2025-12-12T23:16:53.204736", "MEAN_MOTION": 1.00272326, "ECCENTRICITY": 0.0002607, "INCLINATION": 0.0499, "RA_OF_ASC_NODE": 134.1983, "ARG_OF_PERICENTER": 125.8762, "MEAN_ANOMALY": 72.052, "EPHEMERIS_TYPE": 0, "CLASSIFICATION_TYPE": "U", "NORAD_CAT_ID": 29236, "ELEMENT_SET_NO": 999, "REV_AT_EPOCH": 7110, "BSTAR": 0, "MEAN_MOTION_DOT": -1.14e-06, "MEAN_MOTION_DDOT": 0}, "tle": {"line1": "1 29236U 06023A   25346.97006024 -.00000114  00000+0  00000+0 0  9996", "line2": "2 29236   0.0499 134.1983 0002607 125.8762  72.0520  1.00272326 71109"}}, "geometry": {"type": "Point", "coordinates": [-142.65334328636618, 0.03031068123490922]}}, {"type": "Feature", "properties": {"norad_id": 29494, "name": "DIRECTV 9S", "group": "intelsat", "lat": 1.4280389845026755, "lon": -144.84921697362554, "alt_km": 35777.73425228262, "timestamp": "2025-12-13T15:35:11.782673+00:00", "meta": {"OBJECT_NAME": "DIRECTV 9S", "OBJECT_ID": "2006-043A", "EPOCH": "2025-12-12T23:16:15.765024", "MEAN_MOTION": 1.00271878, "ECCENTRICITY": 0.0002994, "INCLINATION": 1.941, "RA_OF_ASC_NODE": 83.2089, "ARG_OF_PERICENTER": 181.9864, "MEAN_ANOMALY": 64.5668, "EPHEMERIS_TYPE": 0, "CLASSIFICATION_TYPE": "U", "NORAD_CAT_ID": 29494, "ELEMENT_SET_NO": 999, "REV_AT_EPOCH": 4951, "BSTAR": 0, "MEAN_MOTION_DOT": -1.01e-06, "MEAN_MOTION_DDOT": 0}, "tle": {"line1": "1 29494U 06043A   25346.96962691 -.00000101  00000+0  00000+0 0  9990", "line2": "2 29494   1.9410  83.2089 0002994 181.9864  64.5668  1.00271878 49514"}}, "geometry": {"type": "Point", "coordinates": [-144.84921697362554, 1.4280389845026755]}}, {"type": "Feature", "properties": {"norad_id": 31307, "name": "GALAXY 17 (G-17)", "group": "intelsat", "lat": 1.2656361703249448, "lon": -128.60051736545753, "alt_km": 35762.09203631012, "timestamp": "2025-12-13T15:35:11.782686+00:00", "meta": {"OBJECT_NAME": "GALAXY 17 (G-17)", "OBJECT_ID": "2007-016B", "EPOCH": "2025-12-12T23:20:52.822176", "MEAN_MOTION": 1.00272432, "ECCENTRICITY": 0.00058137, "INCLINATION": 2.5009, "RA_OF_ASC_NODE": 82.283, "ARG_OF_PERICENTER": 164.6763, "MEAN_ANOMALY": 100.1911, "EPHEMERIS_TYPE": 0, "CLASSIFICATION_TYPE": "U", "NORAD_CAT_ID": 31307, "ELEMENT_SET_NO": 999, "REV_AT_EPOCH": 6793, "BSTAR": 0, "MEAN_MOTION_DOT": -1.94e-06, "MEAN_MOTION_DDOT": 0}, "tle": {"line1": "1 31307U 07016B   25346.97283359 -.00000194  00000+0  00000+0 0  9997", "line2": "2 31307   2.5009  82.2830 0005813 164.6763 100.1911  1.00272432 67934"}}, "geometry": {"type": "Point", "coordinates": [-128.60051736545753, 1.2656361703249448]}}, {"type": "Feature", "properties": {"norad_id": 31862, "name": "DIRECTV 10", "group": "intelsat", "lat": 0.003164782990129811, "lon": -146.41695535884998, "alt_km": 35785.03936559375, "timestamp": "2025-12-13T15:35:11.782698+00:00", "meta": {"OBJECT_NAME": "DIRECTV 10", "OBJECT_ID": "2007-032A", "EPOCH": "2025-12-12T23:15:53.301024", "MEAN_MOTION": 1.0027112, "ECCENTRICITY": 2.941e-05, "INCLINATION": 0.0079, "RA_OF_ASC_NODE": 209.5146, "ARG_OF_PERICENTER": 8.2783, "MEAN_ANOMALY": 110.3026, "EPHEMERIS_TYPE": 0, "CLASSIFICATION_TYPE": "U", "NORAD_CAT_ID": 31862, "ELEMENT_SET_NO": 999, "REV_AT_EPOCH": 4372, "BSTAR": 0, "MEAN_MOTION_DOT": -9e-07, "MEAN_MOTION_DDOT": 0}, "tle": {"line1": "1 31862U 07032A   25346.96936691 -.00000090  00000+0  00000+0 0  9999", "line2": "2 31862   0.0079 209.5146 0000294   8.2783 110.3026  1.00271120 43721"}}, "geometry": {"type": "Point", "coordinates": [-146.41695535884998, 0.003164782990129811]}}, {"type": "Feature", "properties": {"norad_id": 32253, "name": "INTELSAT 11 (IS-11)", "group": "intelsat", "lat": 3.0536753102359215, "lon": 177.95725861246575, "alt_km": 36118.39212901208, "timestamp": "2025-12-13T15:35:11.782709+00:00", "meta": {"OBJECT_NAME": "INTELSAT 11 (IS-11)", "OBJECT_ID": "2007-044B", "EPOCH": "2025-12-12T14:25:59.773728", "MEAN_MOTION": 0.99048607, "ECCENTRICITY": 0.00088867, "INCLINATION": 3.0801, "RA_OF_ASC_NODE": 80.9782, "ARG_OF_PERICENTER": 165.8662, "MEAN_ANOMALY": 277.4834, "EPHEMERIS_TYPE": 0, "CLASSIFICATION_TYPE": "U", "NORAD_CAT_ID": 32253, "ELEMENT_SET_NO": 999, "REV_AT_EPOCH": 6660, "BSTAR": 0, "MEAN_MOTION_DOT": 8e-07, "MEAN_MOTION_DDOT": 0}, "tle": {"line1": "1 32253U 07044B   25346.60138627  .00000080  00000+0  00000+0 0  9999", "line2": "2 32253   3.0801  80.9782 0008886 165.8662 277.4834  0.99048607 66603"}}, "geometry": {"type": "Point", "coordinates": [177.95725861246575, 3.0536753102359215]}}, {"type": "Feature", "properties": {"norad_id": 32388, "name": "HORIZONS-2", "group": "intelsat", "lat": 0.7205673658216626, "lon": -117.4487292591311, "alt_km": 35768.81196325372, "timestamp": "2025-12-13T15:35:11.782721+00:00", "meta": {"OBJECT_NAME": "HORIZONS-2", "OBJECT_ID": "2007-063B", "EPOCH": "2025-12-12T23:24:07.510752", "MEAN_MOTION": 1.00269799, "ECCENTRICITY": 0.00048875, "INCLINATION": 2.1223, "RA_OF_ASC_NODE": 82.959, "ARG_OF_PERICENTER": 190.3072, "MEAN_ANOMALY": 85.8782, "EPHEMERIS_TYPE": 0, "CLASSIFICATION_TYPE": "U", "NORAD_CAT_ID": 32388, "ELEMENT_SET_NO": 999, "REV_AT_EPOCH": 6594, "BSTAR": 0, "MEAN_MOTION_DOT": -2.41e-06, "MEAN_MOTION_DDOT": 0}, "tle": {"line1": "1 32388U 07063B   25346.97508693 -.00000241  00000+0  00000+0 0  9993", "line2": "2 32388   2.1223  82.9590 0004887 190.3072  85.8782  1.00269799 65943"}}, "geometry": {"type": "Point", "coordinates": [-117.4487292591311, 0.7205673658216626]}}, {"type": "Feature", "properties": {"norad_id": 32729, "name": "DIRECTV 11", "group": "intelsat", "lat": -0.010017698743928875, "lon": -142.8182522737551, "alt_km": 35785.609637315494, "timestamp": "2025-12-13T15:35:11.782733+00:00", "meta": {"OBJECT_NAME": "DIRECTV 11", "OBJECT_ID": "2008-013A", "EPOCH": "2025-12-12T21:34:07.285152", "MEAN_MOTION": 1.00271941, "ECCENTRICITY": 2.766e-05, "INCLINATION": 0.0293, "RA_OF_ASC_NODE": 167.0626, "ARG_OF_PERICENTER": 342.976, "MEAN_ANOMALY": 156.139, "EPHEMERIS_TYPE": 0, "CLASSIFICATION_TYPE": "U", "NORAD_CAT_ID": 32729, "ELEMENT_SET_NO": 999, "REV_AT_EPOCH": 4372, "BSTAR": 0, "MEAN_MOTION_DOT": -1.13e-06, "MEAN_MOTION_DDOT": 0}, "tle": {"line1": "1 32729U 08013A   25346.89869543 -.00000113  00000+0  00000+0 0  9991", "line2": "2 32729   0.0293 167.0626 0000276 342.9760 156.1390  1.00271941 43729"}}, "geometry": {"type": "Point", "coordinates": [-142.8182522737551, -0.010017698743928875]}}, {"type": "Feature", "properties": {"norad_id": 32951, "name": "GALAXY 18 (G-18)", "group": "intelsat", "lat": -0.008267160177560594, "lon": -166.67107102324488, "alt_km": 35782.65003525012, "timestamp": "2025-12-13T15:35:11.782745+00:00", "meta": {"OBJECT_NAME": "GALAXY 18 (G-18)", "OBJECT_ID": "2008-024A", "EPOCH": "2025-12-12T23:10:01.362720", "MEAN_MOTION": 1.00271762, "ECCENTRICITY": 0.00029211, "INCLINATION": 0.0012, "RA_OF_ASC_NODE": 2.4405, "ARG_OF_PERICENTER": 265.0241, "MEAN_ANOMALY": 38.9366, "EPHEMERIS_TYPE": 0, "CLASSIFICATION_TYPE": "U", "NORAD_CAT_ID": 32951, "ELEMENT_SET_NO": 999, "REV_AT_EPOCH": 4398, "BSTAR": 0, "MEAN_MOTION_DOT": 3.8e-07, "MEAN_MOTION_DDOT": 0}, "tle": {"line1": "1 32951U 08024A   25346.96529355  .00000038  00000+0  00000+0 0  9997", "line2": "2 32951   0.0012   2.4405 0002921 265.0241  38.9366  1.00271762 43989"}}, "geometry": {"type": "Point", "coordinates": [-166.67107102324488, -0.008267160177560594]}}]}